{
  "type": "FeatureCollection",
  "features": [
    {
      "type": "Feature",
      "properties": {
        "norad_id": 40115,
        "name": "WORLDVIEW-3 (WV-3)",
        "group": "resource",
        "lat": -27.242504465601925,
        "lon": -125.38591973395886,
        "alt_km": 614.6959850877674,
        "timestamp": "2025-12-12T09:49:08.385061+00:00",
        "meta_object_name": "WORLDVIEW-3 (WV-3)",
        "meta_object_id": "2014-048A",
        "meta_epoch": "2025-12-12T04:02:18.350016",
        "meta_mean_motion": 14.8550992,
        "meta_eccentricity": 0.0004748,
        "meta_inclination": 97.8613,
        "meta_ra_of_asc_node": 58.4556,
        "meta_arg_of_pericenter": 186.431,
        "meta_mean_anomaly": 173.6845,
        "meta_ephemeris_type": 0,
        "meta_classification_type": "U",
        "meta_norad_cat_id": 40115,
        "meta_element_set_no": 999,
        "meta_rev_at_epoch": 61415,
        "meta_bstar": 0.00024218,
        "meta_mean_motion_dot": 2.038e-05,
        "meta_mean_motion_ddot": 0,
        "tle_line1": "1 40115U 14048A   25346.16826794  .00002038  00000+0  24218-3 0  9993",
        "tle_line2": "2 40115  97.8613  58.4556 0004748 186.4310 173.6845 14.85509920614150"
      },
      "geometry": {
        "type": "Point",
        "coordinates": [
          -125.38591973395886,
          -27.242504465601925
        ]
      }
    },
    {
      "type": "Feature",
      "properties": {
        "norad_id": 40118,
        "name": "GAOFEN-2",
        "group": "resource",
        "lat": 30.091489002405048,
        "lon": 40.87929238967401,
        "alt_km": 625.1740701947228,
        "timestamp": "2025-12-12T09:49:08.385072+00:00",
        "meta_object_name": "GAOFEN-2",
        "meta_object_id": "2014-049A",
        "meta_epoch": "2025-12-12T04:48:58.250016",
        "meta_mean_motion": 14.80609065,
        "meta_eccentricity": 0.0008581,
        "meta_inclination": 98.0382,
        "meta_ra_of_asc_node": 45.3677,
        "meta_arg_of_pericenter": 114.5181,
        "meta_mean_anomaly": 245.6926,
        "meta_ephemeris_type": 0,
        "meta_classification_type": "U",
        "meta_norad_cat_id": 40118,
        "meta_element_set_no": 999,
        "meta_rev_at_epoch": 61156,
        "meta_bstar": 0.00025219,
        "meta_mean_motion_dot": 1.883e-05,
        "meta_mean_motion_ddot": 0,
        "tle_line1": "1 40118U 14049A   25346.20067419  .00001883  00000+0  25219-3 0  9992",
        "tle_line2": "2 40118  98.0382  45.3677 0008581 114.5181 245.6926 14.80609065611563"
      },
      "geometry": {
        "type": "Point",
        "coordinates": [
          40.87929238967401,
          30.091489002405048
        ]
      }
    },
    {
      "type": "Feature",
      "properties": {
        "norad_id": 40143,
        "name": "YAOGAN-21",
        "group": "resource",
        "lat": -56.56720132916096,
        "lon": 40.73775723674126,
        "alt_km": 503.07277166102267,
        "timestamp": "2025-12-12T09:49:08.385082+00:00",
        "meta_object_name": "YAOGAN-21",
        "meta_object_id": "2014-053A",
        "meta_epoch": "2025-12-12T05:20:28.664736",
        "meta_mean_motion": 15.23670973,
        "meta_eccentricity": 0.0009801,
        "meta_inclination": 97.1757,
        "meta_ra_of_asc_node": 29.558,
        "meta_arg_of_pericenter": 43.6522,
        "meta_mean_anomaly": 316.5489,
        "meta_ephemeris_type": 0,
        "meta_classification_type": "U",
        "meta_norad_cat_id": 40143,
        "meta_element_set_no": 999,
        "meta_rev_at_epoch": 62646,
        "meta_bstar": 0.00038442,
        "meta_mean_motion_dot": 9.168e-05,
        "meta_mean_motion_ddot": 0,
        "tle_line1": "1 40143U 14053A   25346.22255399  .00009168  00000+0  38442-3 0  9999",
        "tle_line2": "2 40143  97.1757  29.5580 0009801  43.6522 316.5489 15.23670973626462"
      },
      "geometry": {
        "type": "Point",
        "coordinates": [
          40.73775723674126,
          -56.56720132916096
        ]
      }
    },
    {
      "type": "Feature",
      "properties": {
        "norad_id": 40275,
        "name": "YAOGAN-22",
        "group": "resource",
        "lat": 24.71383798067616,
        "lon": 124.81178751110556,
        "alt_km": 1204.1868626040077,
        "timestamp": "2025-12-12T09:49:08.385092+00:00",
        "meta_object_name": "YAOGAN-22",
        "meta_object_id": "2014-063A",
        "meta_epoch": "2025-12-12T00:33:54.383040",
        "meta_mean_motion": 13.15522652,
        "meta_eccentricity": 0.0005951,
        "meta_inclination": 100.742,
        "meta_ra_of_asc_node": 129.4329,
        "meta_arg_of_pericenter": 250.0375,
        "meta_mean_anomaly": 110.0095,
        "meta_ephemeris_type": 0,
        "meta_classification_type": "U",
        "meta_norad_cat_id": 40275,
        "meta_element_set_no": 999,
        "meta_rev_at_epoch": 53520,
        "meta_bstar": 3.5322e-05,
        "meta_mean_motion_dot": -3.3e-07,
        "meta_mean_motion_ddot": 0,
        "tle_line1": "1 40275U 14063A   25346.02354610 -.00000033  00000+0  35322-4 0  9998",
        "tle_line2": "2 40275 100.7420 129.4329 0005951 250.0375 110.0095 13.15522652535209"
      },
      "geometry": {
        "type": "Point",
        "coordinates": [
          124.81178751110556,
          24.71383798067616
        ]
      }
    },
    {
      "type": "Feature",
      "properties": {
        "norad_id": 40298,
        "name": "ASNARO",
        "group": "resource",
        "lat": -4.413808647089633,
        "lon": 62.93487615375385,
        "alt_km": 513.3272887160565,
        "timestamp": "2025-12-12T09:49:08.385103+00:00",
        "meta_object_name": "ASNARO",
        "meta_object_id": "2014-070A",
        "meta_epoch": "2025-12-12T05:05:49.454880",
        "meta_mean_motion": 15.19483446,
        "meta_eccentricity": 0.0005516,
        "meta_inclination": 97.3651,
        "meta_ra_of_asc_node": 62.1709,
        "meta_arg_of_pericenter": 123.6403,
        "meta_mean_anomaly": 236.5359,
        "meta_ephemeris_type": 0,
        "meta_classification_type": "U",
        "meta_norad_cat_id": 40298,
        "meta_element_set_no": 999,
        "meta_rev_at_epoch": 61561,
        "meta_bstar": 0.00084873,
        "meta_mean_motion_dot": 0.00017978,
        "meta_mean_motion_ddot": 0,
        "tle_line1": "1 40298U 14070A   25346.21237795  .00017978  00000+0  84873-3 0  9995",
        "tle_line2": "2 40298  97.3651  62.1709 0005516 123.6403 236.5359 15.19483446615614"
      },
      "geometry": {
        "type": "Point",
        "coordinates": [
          62.93487615375385,
          -4.413808647089633
        ]
      }
    },
    {
      "type": "Feature",
      "properties": {
        "norad_id": 40310,
        "name": "YAOGAN-24",
        "group": "resource",
        "lat": 19.13397070918439,
        "lon": 114.65991545551188,
        "alt_km": 646.7217103408657,
        "timestamp": "2025-12-12T09:49:08.385114+00:00",
        "meta_object_name": "YAOGAN-24",
        "meta_object_id": "2014-072A",
        "meta_epoch": "2025-12-12T04:51:03.922272",
        "meta_mean_motion": 14.76175991,
        "meta_eccentricity": 0.0014716,
        "meta_inclination": 98.1221,
        "meta_ra_of_asc_node": 117.2919,
        "meta_arg_of_pericenter": 139.6485,
        "meta_mean_anomaly": 220.5819,
        "meta_ephemeris_type": 0,
        "meta_classification_type": "U",
        "meta_norad_cat_id": 40310,
        "meta_element_set_no": 999,
        "meta_rev_at_epoch": 59613,
        "meta_bstar": 0.00027655,
        "meta_mean_motion_dot": 1.862e-05,
        "meta_mean_motion_ddot": 0,
        "tle_line1": "1 40310U 14072A   25346.20212873  .00001862  00000+0  27655-3 0  9991",
        "tle_line2": "2 40310  98.1221 117.2919 0014716 139.6485 220.5819 14.76175991596139"
      },
      "geometry": {
        "type": "Point",
        "coordinates": [
          114.65991545551188,
          19.13397070918439
        ]
      }
    },
    {
      "type": "Feature",
      "properties": {
        "norad_id": 40336,
        "name": "CBERS 4",
        "group": "resource",
        "lat": 11.314260389864492,
        "lon": -133.88328722409392,
        "alt_km": 774.0408740461353,
        "timestamp": "2025-12-12T09:49:08.385124+00:00",
        "meta_object_name": "CBERS 4",
        "meta_object_id": "2014-079A",
        "meta_epoch": "2025-12-12T04:01:06.384000",
        "meta_mean_motion": 14.35517593,
        "meta_eccentricity": 0.0001635,
        "meta_inclination": 98.3305,
        "meta_ra_of_asc_node": 44.2034,
        "meta_arg_of_pericenter": 113.9365,
        "meta_mean_anomaly": 246.1993,
        "meta_ephemeris_type": 0,
        "meta_classification_type": "U",
        "meta_norad_cat_id": 40336,
        "meta_element_set_no": 999,
        "meta_rev_at_epoch": 57712,
        "meta_bstar": 0.00011495,
        "meta_mean_motion_dot": 2.89e-06,
        "meta_mean_motion_ddot": 0,
        "tle_line1": "1 40336U 14079A   25346.16743500  .00000289  00000+0  11495-3 0  9994",
        "tle_line2": "2 40336  98.3305  44.2034 0001635 113.9365 246.1993 14.35517593577125"
      },
      "geometry": {
        "type": "Point",
        "coordinates": [
          -133.88328722409392,
          11.314260389864492
        ]
      }
    }
  ]
}